QZS-1R                  
1 49336U 21096A   23193.70628644 -.00000325  00000+0  00000+0 0  9997
2 49336  35.2442  95.7425 0757982 271.8416 310.1064  1.00248752  6275
